METEOSAT-11 (MSG-4)     
1 40732U 15034A   26073.57036880  .00000062  00000+0  00000+0 0  9990
2 40732   2.9637  71.6194 0001839 274.6277  40.5020  1.00269313  6269
ELEKTRO-L 2             
1 41105U 15074A   26073.35167058 -.00000115  00000+0  00000+0 0  9997
2 41105   6.4549  71.6840 0002821 249.5382 322.8309  1.00273517 37556
INSAT-3DR               
1 41752U 16054A   26073.66585441 -.00000078  00000+0  00000+0 0  9996
2 41752   0.0725  91.6208 0012709 190.6134 203.7397  1.00271985 34870
HIMAWARI-9              
1 41836U 16064A   26072.32490329 -.00000275  00000+0  00000+0 0  9991
2 41836   0.0168 188.9082 0001493 206.6887  33.0744  1.00270032 34248
GOES 16                 
1 41866U 16071A   26073.54774869 -.00000092  00000+0  00000+0 0  9998
2 41866   0.1235  86.9349 0002210 231.5878 306.1335  1.00273550 34153
FENGYUN 4A              
1 41882U 16077A   26073.48750623 -.00000357  00000+0  00000+0 0  9991
2 41882   2.0803  81.2811 0007145 133.2398 256.8351  1.00274552 33984
CYGFM05                 
1 41884U 16078A   26073.58800876  .00030787  00000+0  48632-3 0  9997
2 41884  34.9573 165.0592 0006690 329.6325  30.4009 15.52448100514025
CYGFM04                 
1 41885U 16078B   26073.56208356  .00036768  00000+0  51091-3 0  9999
2 41885  34.9329 137.1239 0005089   6.0947 353.9838 15.55929946514220
CYGFM02                 
1 41886U 16078C   26073.58410793  .00040817  00000+0  51896-3 0  9995
2 41886  34.9417 133.7682 0006062   9.7266 350.3575 15.58277869514377
CYGFM01                 
1 41887U 16078D   26073.61374275  .00031795  00000+0  49394-3 0  9999
2 41887  34.9406 166.6462 0006476 321.1618  38.8639 15.52903620513977
CYGFM08                 
1 41888U 16078E   26073.58771926  .00034242  00000+0  49627-3 0  9999
2 41888  34.9437 148.5789 0007487 350.4007   9.6573 15.54784414514214
CYGFM07                 
1 41890U 16078G   26073.61756330  .00034846  00000+0  49872-3 0  9990
2 41890  34.9454 136.8135 0005589  10.0407 350.0428 15.55137384514249
CYGFM03                 
1 41891U 16078H   26073.58859141  .00034304  00000+0  49101-3 0  9995
2 41891  34.9410 138.9786 0005092 352.8939   7.1712 15.55139814514216
FENGYUN 3D              
1 43010U 17072A   26073.56947034 -.00000208  00000+0 -76703-4 0  9999
2 43010  99.0035  46.3288 0001364   3.2970 356.8215 14.19715320431564
NOAA 20 (JPSS-1)        
1 43013U 17073A   26073.55089999  .00000084  00000+0  60598-4 0  9994
2 43013  98.7696  13.8898 0001418 131.1845 228.9454 14.19537491431042
GOES 17                 
1 43226U 18022A   26073.55078204 -.00000183  00000+0  00000+0 0  9990
2 43226   0.6927  87.3200 0001625 234.4927 319.1205  1.00272505 29473
FENGYUN 2H              
1 43491U 18050A   26073.58414884 -.00000127  00000+0  00000+0 0  9994
2 43491   2.7852  80.2241 0001336 170.5718 210.7931  1.00272571 28497
