[{"OBJECT_NAME":"METEOSAT-11 (MSG-4)","OBJECT_ID":"2015-034A","EPOCH":"2026-03-14T13:41:19.864320","MEAN_MOTION":1.00269313,"ECCENTRICITY":0.00018392,"INCLINATION":2.9637,"RA_OF_ASC_NODE":71.6194,"ARG_OF_PERICENTER":274.6277,"MEAN_ANOMALY":40.502,"EPHEMERIS_TYPE":0,"CLASSIFICATION_TYPE":"U","NORAD_CAT_ID":40732,"ELEMENT_SET_NO":999,"REV_AT_EPOCH":626,"BSTAR":0,"MEAN_MOTION_DOT":6.2e-7,"MEAN_MOTION_DDOT":0},{"OBJECT_NAME":"ELEKTRO-L 2","OBJECT_ID":"2015-074A","EPOCH":"2026-03-14T08:26:24.338112","MEAN_MOTION":1.00273517,"ECCENTRICITY":0.00028216,"INCLINATION":6.4549,"RA_OF_ASC_NODE":71.684,"ARG_OF_PERICENTER":249.5382,"MEAN_ANOMALY":322.8309,"EPHEMERIS_TYPE":0,"CLASSIFICATION_TYPE":"U","NORAD_CAT_ID":41105,"ELEMENT_SET_NO":999,"REV_AT_EPOCH":3755,"BSTAR":0,"MEAN_MOTION_DOT":-1.15e-6,"MEAN_MOTION_DDOT":0},{"OBJECT_NAME":"INSAT-3DR","OBJECT_ID":"2016-054A","EPOCH":"2026-03-14T15:58:49.821024","MEAN_MOTION":1.00271985,"ECCENTRICITY":0.00127093,"INCLINATION":0.0725,"RA_OF_ASC_NODE":91.6208,"ARG_OF_PERICENTER":190.6134,"MEAN_ANOMALY":203.7397,"EPHEMERIS_TYPE":0,"CLASSIFICATION_TYPE":"U","NORAD_CAT_ID":41752,"ELEMENT_SET_NO":999,"REV_AT_EPOCH":3487,"BSTAR":0,"MEAN_MOTION_DOT":-7.8e-7,"MEAN_MOTION_DDOT":0},{"OBJECT_NAME":"HIMAWARI-9","OBJECT_ID":"2016-064A","EPOCH":"2026-03-13T07:47:51.644256","MEAN_MOTION":1.00270032,"ECCENTRICITY":0.00014931,"INCLINATION":0.0168,"RA_OF_ASC_NODE":188.9082,"ARG_OF_PERICENTER":206.6887,"MEAN_ANOMALY":33.0744,"EPHEMERIS_TYPE":0,"CLASSIFICATION_TYPE":"U","NORAD_CAT_ID":41836,"ELEMENT_SET_NO":999,"REV_AT_EPOCH":3424,"BSTAR":0,"MEAN_MOTION_DOT":-2.75e-6,"MEAN_MOTION_DDOT":0},{"OBJECT_NAME":"GOES 16","OBJECT_ID":"2016-071A","EPOCH":"2026-03-14T13:08:45.486816","MEAN_MOTION":1.0027355,"ECCENTRICITY":0.00022101,"INCLINATION":0.1235,"RA_OF_ASC_NODE":86.9349,"ARG_OF_PERICENTER":231.5878,"MEAN_ANOMALY":306.1335,"EPHEMERIS_TYPE":0,"CLASSIFICATION_TYPE":"U","NORAD_CAT_ID":41866,"ELEMENT_SET_NO":999,"REV_AT_EPOCH":3415,"BSTAR":0,"MEAN_MOTION_DOT":-9.2e-7,"MEAN_MOTION_DDOT":0},{"OBJECT_NAME":"FENGYUN 4A","OBJECT_ID":"2016-077A","EPOCH":"2026-03-14T11:42:00.538272","MEAN_MOTION":1.00274552,"ECCENTRICITY":0.00071459,"INCLINATION":2.0803,"RA_OF_ASC_NODE":81.2811,"ARG_OF_PERICENTER":133.2398,"MEAN_ANOMALY":256.8351,"EPHEMERIS_TYPE":0,"CLASSIFICATION_TYPE":"U","NORAD_CAT_ID":41882,"ELEMENT_SET_NO":999,"REV_AT_EPOCH":3398,"BSTAR":0,"MEAN_MOTION_DOT":-3.57e-6,"MEAN_MOTION_DDOT":0},{"OBJECT_NAME":"CYGFM05","OBJECT_ID":"2016-078A","EPOCH":"2026-03-14T14:06:43.956864","MEAN_MOTION":15.524481,"ECCENTRICITY":0.00066902,"INCLINATION":34.9573,"RA_OF_ASC_NODE":165.0592,"ARG_OF_PERICENTER":329.6325,"MEAN_ANOMALY":30.4009,"EPHEMERIS_TYPE":0,"CLASSIFICATION_TYPE":"U","NORAD_CAT_ID":41884,"ELEMENT_SET_NO":999,"REV_AT_EPOCH":51402,"BSTAR":0.0004863167,"MEAN_MOTION_DOT":0.00030787,"MEAN_MOTION_DDOT":0},{"OBJECT_NAME":"CYGFM04","OBJECT_ID":"2016-078B","EPOCH":"2026-03-14T13:29:24.019584","MEAN_MOTION":15.55929946,"ECCENTRICITY":0.00050894,"INCLINATION":34.9329,"RA_OF_ASC_NODE":137.1239,"ARG_OF_PERICENTER":6.0947,"MEAN_ANOMALY":353.9838,"EPHEMERIS_TYPE":0,"CLASSIFICATION_TYPE":"U","NORAD_CAT_ID":41885,"ELEMENT_SET_NO":999,"REV_AT_EPOCH":51422,"BSTAR":0.000510908,"MEAN_MOTION_DOT":0.00036768,"MEAN_MOTION_DDOT":0},{"OBJECT_NAME":"CYGFM02","OBJECT_ID":"2016-078C","EPOCH":"2026-03-14T14:01:06.925152","MEAN_MOTION":15.58277869,"ECCENTRICITY":0.00060626,"INCLINATION":34.9417,"RA_OF_ASC_NODE":133.7682,"ARG_OF_PERICENTER":9.7266,"MEAN_ANOMALY":350.3575,"EPHEMERIS_TYPE":0,"CLASSIFICATION_TYPE":"U","NORAD_CAT_ID":41886,"ELEMENT_SET_NO":999,"REV_AT_EPOCH":51437,"BSTAR":0.00051895679,"MEAN_MOTION_DOT":0.00040817,"MEAN_MOTION_DDOT":0},{"OBJECT_NAME":"CYGFM01","OBJECT_ID":"2016-078D","EPOCH":"2026-03-14T14:43:47.373600","MEAN_MOTION":15.5290362,"ECCENTRICITY":0.00064764,"INCLINATION":34.9406,"RA_OF_ASC_NODE":166.6462,"ARG_OF_PERICENTER":321.1618,"MEAN_ANOMALY":38.8639,"EPHEMERIS_TYPE":0,"CLASSIFICATION_TYPE":"U","NORAD_CAT_ID":41887,"ELEMENT_SET_NO":999,"REV_AT_EPOCH":51397,"BSTAR":0.00049394338,"MEAN_MOTION_DOT":0.00031795,"MEAN_MOTION_DDOT":0},{"OBJECT_NAME":"CYGFM08","OBJECT_ID":"2016-078E","EPOCH":"2026-03-14T14:06:18.944064","MEAN_MOTION":15.54784414,"ECCENTRICITY":0.00074875,"INCLINATION":34.9437,"RA_OF_ASC_NODE":148.5789,"ARG_OF_PERICENTER":350.4007,"MEAN_ANOMALY":9.6573,"EPHEMERIS_TYPE":0,"CLASSIFICATION_TYPE":"U","NORAD_CAT_ID":41888,"ELEMENT_SET_NO":999,"REV_AT_EPOCH":51421,"BSTAR":0.00049627059,"MEAN_MOTION_DOT":0.00034242,"MEAN_MOTION_DDOT":0},{"OBJECT_NAME":"CYGFM07","OBJECT_ID":"2016-078G","EPOCH":"2026-03-14T14:49:17.469120","MEAN_MOTION":15.55137384,"ECCENTRICITY":0.00055899,"INCLINATION":34.9454,"RA_OF_ASC_NODE":136.8135,"ARG_OF_PERICENTER":10.0407,"MEAN_ANOMALY":350.0428,"EPHEMERIS_TYPE":0,"CLASSIFICATION_TYPE":"U","NORAD_CAT_ID":41890,"ELEMENT_SET_NO":999,"REV_AT_EPOCH":51424,"BSTAR":0.00049871841,"MEAN_MOTION_DOT":0.00034846,"MEAN_MOTION_DDOT":0},{"OBJECT_NAME":"CYGFM03","OBJECT_ID":"2016-078H","EPOCH":"2026-03-14T14:07:34.297824","MEAN_MOTION":15.55139814,"ECCENTRICITY":0.00050929,"INCLINATION":34.941,"RA_OF_ASC_NODE":138.9786,"ARG_OF_PERICENTER":352.8939,"MEAN_ANOMALY":7.1712,"EPHEMERIS_TYPE":0,"CLASSIFICATION_TYPE":"U","NORAD_CAT_ID":41891,"ELEMENT_SET_NO":999,"REV_AT_EPOCH":51421,"BSTAR":0.00049101259,"MEAN_MOTION_DOT":0.00034304,"MEAN_MOTION_DDOT":0},{"OBJECT_NAME":"FENGYUN 3D","OBJECT_ID":"2017-072A","EPOCH":"2026-03-14T13:40:02.237376","MEAN_MOTION":14.1971532,"ECCENTRICITY":0.00013642,"INCLINATION":99.0035,"RA_OF_ASC_NODE":46.3288,"ARG_OF_PERICENTER":3.297,"MEAN_ANOMALY":356.8215,"EPHEMERIS_TYPE":0,"CLASSIFICATION_TYPE":"U","NORAD_CAT_ID":43010,"ELEMENT_SET_NO":999,"REV_AT_EPOCH":43156,"BSTAR":-7.6703027e-5,"MEAN_MOTION_DOT":-2.08e-6,"MEAN_MOTION_DDOT":0},{"OBJECT_NAME":"NOAA 20 (JPSS-1)","OBJECT_ID":"2017-073A","EPOCH":"2026-03-14T13:13:17.759136","MEAN_MOTION":14.19537491,"ECCENTRICITY":0.00014186,"INCLINATION":98.7696,"RA_OF_ASC_NODE":13.8898,"ARG_OF_PERICENTER":131.1845,"MEAN_ANOMALY":228.9454,"EPHEMERIS_TYPE":0,"CLASSIFICATION_TYPE":"U","NORAD_CAT_ID":43013,"ELEMENT_SET_NO":999,"REV_AT_EPOCH":43104,"BSTAR":6.0597649e-5,"MEAN_MOTION_DOT":8.4e-7,"MEAN_MOTION_DDOT":0},{"OBJECT_NAME":"GOES 17","OBJECT_ID":"2018-022A","EPOCH":"2026-03-14T13:13:07.568256","MEAN_MOTION":1.00272505,"ECCENTRICITY":0.00016255,"INCLINATION":0.6927,"RA_OF_ASC_NODE":87.32,"ARG_OF_PERICENTER":234.4927,"MEAN_ANOMALY":319.1205,"EPHEMERIS_TYPE":0,"CLASSIFICATION_TYPE":"U","NORAD_CAT_ID":43226,"ELEMENT_SET_NO":999,"REV_AT_EPOCH":2947,"BSTAR":0,"MEAN_MOTION_DOT":-1.83e-6,"MEAN_MOTION_DDOT":0},{"OBJECT_NAME":"FENGYUN 2H","OBJECT_ID":"2018-050A","EPOCH":"2026-03-14T14:01:10.459776","MEAN_MOTION":1.00272571,"ECCENTRICITY":0.00013366,"INCLINATION":2.7852,"RA_OF_ASC_NODE":80.2241,"ARG_OF_PERICENTER":170.5718,"MEAN_ANOMALY":210.7931,"EPHEMERIS_TYPE":0,"CLASSIFICATION_TYPE":"U","NORAD_CAT_ID":43491,"ELEMENT_SET_NO":999,"REV_AT_EPOCH":2849,"BSTAR":0,"MEAN_MOTION_DOT":-1.27e-6,"MEAN_MOTION_DDOT":0}]
